[{"OBJECT_NAME":"STARLINK-2095","OBJECT_ID":"2021-012BM","EPOCH":"2026-03-10T00:00:02.999808","MEAN_MOTION":15.74200805,"ECCENTRICITY":0.00059989,"INCLINATION":53.0265,"RA_OF_ASC_NODE":345.7098,"ARG_OF_PERICENTER":141.0946,"MEAN_ANOMALY":123.1256,"EPHEMERIS_TYPE":0,"CLASSIFICATION_TYPE":"U","NORAD_CAT_ID":47679,"ELEMENT_SET_NO":999,"REV_AT_EPOCH":596,"BSTAR":0.0014953733,"MEAN_MOTION_DOT":0.00224612,"MEAN_MOTION_DDOT":0},{"OBJECT_NAME":"STARLINK-11539 [DTC]","OBJECT_ID":"2025-031G","EPOCH":"2026-03-09T04:27:28.229760","MEAN_MOTION":15.70860057,"ECCENTRICITY":0.00014688,"INCLINATION":42.9999,"RA_OF_ASC_NODE":4.4506,"ARG_OF_PERICENTER":307.5936,"MEAN_ANOMALY":52.4798,"EPHEMERIS_TYPE":0,"CLASSIFICATION_TYPE":"U","NORAD_CAT_ID":62987,"ELEMENT_SET_NO":999,"REV_AT_EPOCH":6266,"BSTAR":0.0012280857,"MEAN_MOTION_DOT":0.00160342,"MEAN_MOTION_DDOT":0}]
